ONEWEB-0549             
1 56051U 23043F   24119.79485107  .00000118  00000+0  25329-3 0  9990
2 56051  87.9318  39.1116 0001883  83.3562 276.7786 13.21831799 55268
ONEWEB-0550             
1 56052U 23043G   24119.78222027  .00000070  00000+0  13690-3 0  9995
2 56052  87.9314  39.1238 0001709  77.9826 282.1499 13.21828970 55268
ONEWEB-0551             
1 56053U 23043H   24119.87184887  .00000167  00000+0  40830-3 0  9990
2 56053  87.9044  54.3139 0001905  87.2385 272.8963 13.15549583 53937
ONEWEB-0552             
1 56054U 23043J   24119.85160488  .00000036  00000+0  55735-4 0  9996
2 56054  87.9314  39.1200 0001573  82.6654 277.4659 13.21829325 55271
ONEWEB-0553             
1 56055U 23043K   24119.75710889 -.00003134  00000+0 -82328-2 0  9992
2 56055  87.9150  23.9239 0002296  74.0891 286.0493 13.16597592 56415
ONEWEB-0554             
1 56056U 23043L   24119.74444507 -.00000173  00000+0 -48735-3 0  9998
2 56056  87.9151  23.9468 0001277  63.6759 296.4503 13.16594071 56399
ONEWEB-0555             
1 56057U 23043M   24119.78244691  .00000042  00000+0  76403-4 0  9992
2 56057  87.9146  23.9121 0002314  63.5151 296.6217 13.16595825 56402
ONEWEB-0557             
1 56058U 23043N   24119.79669139  .00000223  00000+0  54867-3 0  9992
2 56058  87.9145  23.9352 0002219  50.2689 309.8638 13.16594610 56406
